[{"OBJECT_NAME":"STARLINK-1320","OBJECT_ID":"2020-025AT","EPOCH":"2026-03-09T22:25:05.757888","MEAN_MOTION":15.68740025,"ECCENTRICITY":0.00073169,"INCLINATION":53.0503,"RA_OF_ASC_NODE":344.5237,"ARG_OF_PERICENTER":58.0358,"MEAN_ANOMALY":302.1368,"EPHEMERIS_TYPE":0,"CLASSIFICATION_TYPE":"U","NORAD_CAT_ID":45572,"ELEMENT_SET_NO":999,"REV_AT_EPOCH":32684,"BSTAR":0.00068865274,"MEAN_MOTION_DOT":0.00080462,"MEAN_MOTION_DDOT":0},{"OBJECT_NAME":"STARLINK-11226 [DTC]","OBJECT_ID":"2024-154E","EPOCH":"2026-03-09T10:44:00.678048","MEAN_MOTION":15.69701932,"ECCENTRICITY":0.0001027,"INCLINATION":53.1592,"RA_OF_ASC_NODE":132.6557,"ARG_OF_PERICENTER":96.6131,"MEAN_ANOMALY":263.5003,"EPHEMERIS_TYPE":0,"CLASSIFICATION_TYPE":"U","NORAD_CAT_ID":60907,"ELEMENT_SET_NO":999,"REV_AT_EPOCH":8847,"BSTAR":-2.0817e-7,"MEAN_MOTION_DOT":-6.14e-6,"MEAN_MOTION_DDOT":0}]
